[{"OBJECT_NAME":"STARLINK-32235","OBJECT_ID":"2024-152V","EPOCH":"2026-03-09T17:23:18.953952","MEAN_MOTION":15.30156512,"ECCENTRICITY":0.00010791,"INCLINATION":53.1586,"RA_OF_ASC_NODE":268.4462,"ARG_OF_PERICENTER":89.028,"MEAN_ANOMALY":271.0845,"EPHEMERIS_TYPE":0,"CLASSIFICATION_TYPE":"U","NORAD_CAT_ID":60739,"ELEMENT_SET_NO":999,"REV_AT_EPOCH":8680,"BSTAR":-0.00015117332,"MEAN_MOTION_DOT":-4.827e-5,"MEAN_MOTION_DDOT":0},{"OBJECT_NAME":"ARIANE 5 R\/B","OBJECT_ID":"2007-056C","EPOCH":"2026-03-09T20:18:14.425920","MEAN_MOTION":3.04328972,"ECCENTRICITY":0.67183261,"INCLINATION":5.9178,"RA_OF_ASC_NODE":232.1149,"ARG_OF_PERICENTER":59.4808,"MEAN_ANOMALY":349.9202,"EPHEMERIS_TYPE":0,"CLASSIFICATION_TYPE":"U","NORAD_CAT_ID":32295,"ELEMENT_SET_NO":999,"REV_AT_EPOCH":17156,"BSTAR":0.00090863368,"MEAN_MOTION_DOT":9.277e-5,"MEAN_MOTION_DDOT":0}]
